Stadium Name|Address|City|State|Team Name
Alumni Stadium|140 Commonwealth Ave|Chestnut Hill|Massachusetts|Boston College Eagles
Clemson Memorial Stadium|Centennial Boulevard|Clemson|South Carolina|Clemson Tigers
Wallace Wade Stadium|104 Bryan University Center|Durham|North Carolina|Duke Blue Devils
Doak Campbell Stadium|Pensacola St & Stadium Dr|Tallahassee|Florida|Florida State Seminoles
Bobby Dodd Stadium|155 North Ave.|N.W.Atlanta|Georgia|Georgia Tech Yellow Jackets
Byrd Stadium|University of Maryland|College Park|Maryland|Maryland Terrapins
Sun Life Stadium||Miami|Florida|Miami (FL) Hurricanes
Carter Finley Stadium|5184 Trinity Rd|Raleigh|North Carolina|North Carolina State Wolfpack
Kenan Stadium|104 Stadium Drive|Chapel Hill|North Carolina|North Carolina Tar Heels
Scott Stadium|1815 Stadium Road|Charlottesville|Virginia|Virginia Cavaliers
Lane Stadium|359 Jamerson Athletic Center|Blacksburg|Virginia|Virginia Tech Hokies
Groves Stadium|411 Deacon Blvd|Winston-Salem|North Carolina|Wake Forest Demon Deacons
Floyd Casey Stadium|150 Bear Run|Waco|Texas|Baylor Bears
Folsom Field|Colorado Ave|Boulder|Colorado|Colorado Buffaloes
Jack Trice Stadium|South Fourth St|Ames|Iowa|Iowa State Cyclones
Memorial Stadium|11th St. & Maine St.|Lawrence|Kansas|Kansas Jayhawks
Bill Snyder Family Stadium|1800 College Avenue|Manhattan|Kansas|Kansas State Wildcats
Faurot Field|600 Stadium Boulevard|Columbia|Missouri|Missouri Tigers
Memorial Stadium|10th St. & Stadium Dr.|Lincoln|Nebraska|Nebraska Cornhuskers
Gaylord Family Oklahoma Memorial Stadium at Owen Field|180 W Brooks|Norman|Oklahoma|Oklahoma Sooners
Boone Pickens Stadium|Hall of Fame Ave at Hester St|Stillwater|Oklahoma|Oklahoma State Cowboys
Kyle Field|Texas A&M University|College Station|Texas|Texas A&M Aggies
DKR Memorial Stadium|2100 San Jacinto Blvd.|Austin |Texas|Texas Longhorns
Jones AT&T Stadium|Drive of Champions|Lubbock|Texas|Texas Tech Red Raiders
Nippert Stadium|University of Ohio|Cincinnati|Ohio|Cincinnati Bearcats
Rentschler Field|615 Silver Lane|Hartford|Connecticut|Connecticut Huskies
Papa John Stadium|2800  South Floyd Street|Louisville|Kentucky|Louisville Cardinals
Heinz Field|100 Art Rooney Avenue|Pittsburgh|Pennsylvania|Pittsburgh Panthers
Rutgers Stadium|1 Scarlet Knight Way|Piscataway|New Jersey|Rutgers Scarlet Knights
Raymond James Stadium|One Buccaneer Place|Tampa Bay|Florida|South Florida Bulls
Carrier Dome|Syracuse University|Syracuse|New York|Syracuse Orange
Mountaineer Field|Don Nehlen Dr|Morgantown|West Virginia|West Virginia Mountaineers
Memorial Stadium|1800 S 1st|Champaign|Illinois|Illinois Fighting Illini
Memorial Stadium|1200 E 17th St.|Bloomington|Indiana|Indiana Hoosiers
Kinnick Stadium|Hawkins Dr|Iowa City|Iowa|Iowa Hawkeyes
Spartan Stadium|Red Cedar Rd and Shaw Lane|East Lansing|Michigan|Michigan State Spartans
Michigan Stadium|530 South State Street|Ann Harbor|Michigan|Michigan Wolverines
TCF Bank Stadium||Minneapolis|Minnesota|Minnesota Golden Gophers
Rysn Field|1501 Central Street|Evanston|Illinois|Northwestern Wildcats
Ohio Stadium|411 Woody Hayes Dr|Columbus|Ohio|Ohio State Buckeyes
Beaver Stadium|127 Bryce Jordan Ctr|University Park|Pennsylvania|Penn State Nittany Lions
Ross-Ade Stadium|850 Beering Drive|West Lafayette|Indiana|Purdue Boilermakers
Camp Randall Stadium|1440 Monroe St|Madison|Wisconsin|Wisconsin Badgers
Dowdy-Ficklen Stadium|100 Ficklen Street|Greenville|North Carolina|East Carolina Pirates
Robertson Stadium|Scott and Holman|Houston|Texas|Houston Cougars
Joan C. Edwards Stadium|2001 3rd Avenue|Huntington|West Virginia|Marshall Thundering Herd
Liberty Bowl Stadium|335 S Hollywood Street|Memphis|Tennessee|Memphis Tigers
Rice Stadium|6100 S Main St|Houston|Texas|Rice Owls
Gerald J. Ford Stadium|2404 Ross Avenue|Dallas|Texas|Southern Methodist Mustangs
M.M. Roberts Stadium||Hattiesburgh|Mississippi|Southern Miss Golden Eagles
Louisiana Superdome|1500 Poydras Street|New Orleans |Louisiana|Tulane Green Wave
Skelly Stadium|800 Tucker Drive|Tulsa|Oklahoma|Tulsa Golden Hurricane
Legion Field|400 Graymont Avenue West|Birmingham|Alabama|UAB Blazers
Bright House Networks Field||Orlando|Florida|UCF Knights
Sun Bowl Stadium||El Paso|Texas|UTEP Miners
Michie Stadium|700 Mills Road|West Point|New York|Army Black Knights
Navy Marine Corps Memorial Stadium|Rowe Blvd & Taylor Ave.|Annapolis|Maryland|Navy Midshipmen
Notre Dame Stadium|University of Notre Dame|Notre Dame|Indiana|Notre Dame Fighting Irish
Rubber Bowl|800 Washington Street|Cherry Creek|Ohio|Akron Zips
Ball State Stadium||Muncie|Indiana|Ball State Cardinals
Doyt Perry Stadium|Stadium Drive|Bowling Green|Ohio|Bowling Green Falcons
University at Buffalo Stadium||Buffalo|New York|Buffalo Bulls
Kelly / Shorts Stadium||Mount Pleasant|Michigan|Central Michigan Chippewas
Rynearson Stadium|2051 N Huron River Drive|Ypsilanti|Michigan|Eastern Michigan Eagles
Dix Stadium||Kent|Ohio|Kent State Golden Flashes
Yager Stadium||Oxford |Ohio|Miami (OH) RedHawks
Husky Stadium||DeKalb|Illinois|Northern Illinois Huskies
Peden Stadium||Athens|Ohio|Ohio Bobcats
Lincoln Financial Field|3501 South Broad Street|Philadelphia|Pennsylvania|Temple Owls
Glass Bowl Stadium||Toledo |Ohio|Toledo Rockets
Waldo Stadium||||Western Michigan Broncos
Falcon Stadium|2169 United States Afa|Colorado Springs|Colorado|Air Force Falcons
LaVell Edwards Stadium||Provo |Utah|Brigham Young Cougars
Hughes Stadium|1800 S Overland Trail|Fort Collins|Colorado|Colorado State Rams
University Stadium|1414 University Boulevard Southeast|Albuquerque|New Mexico|New Mexico Lobos
Qualcomm Stadium|9449 Friars Road|San Diego|California|San Diego State Aztecs
Amon G. Carter Stadium|2850 Stadium Dr|Fort Worth|Texas|TCU Horned Frogs
Sam Boyd Stadium|7000 E. Russell Road|Las Vegas|Nevada|UNLV Rebels
Rice-Eccles Stadium||Salt Lake City|Utah|Utah Utes
Jonah Field at War Memorial Stadium||Laramie|Wyoming|Wyoming Cowboys
Arizona Stadium|540 N Vine Ave|Tucson|Arizona|Arizona Wildcats
Sun Devil Stadium|500 E Veterans Way|Tempe|Arizona|Arizona State Sun Devils
Memorial Stadium|210 Memorial Stadium|Berkeley|California|California Golden Bears
Autzen Stadium|Leo Harris Parkway|Eugene|Oregon|Oregon Ducks
Reser Stadium|105 Gils Coliseum|Corvallis|Oregon|Oregon State Beavers
Stanford Stadium|Galvez Street|Stanford|California|Stanford Cardinal
Rose Bowl|1001 Rose Bowl Drive|Pasadena|California|UCLA Bruins
Los Angeles Memorial Coliseum|3911 South Figueroa Street|Los Angeles|California|USC Trojans
Husky Stadium|3800 Montlake Blvd NE.|Seattle|Washington|Washington Huskies
Martin Stadium|Washington State University|Pullman |Washington|Washington State Cougars
Bryant-Denny Stadium|100 Bryant Dr|Tuscaloosa|Alabama|Alabama Crimson Tide
Razorback Stadium|Stadium Dr|Fayetteville|Arkansas|Arkansas Razorbacks
War Memorial Stadium|Markham and Fair Park|Little Rock|Arkansas|Arkansas Razorbacks
Jordan-Hare Stadium|2047 Eaves Memorial Coliseum|Auburn|Alabama|Auburn Tigers
Ben Hill Griffin Stadium (The Swamp)|University Ave & Gale Lemerand Dr|Gainesville|Florida|Florida Gators
Sanford Stadium|Sanford Dr|Athens|Georgia|Georgia Bulldogs
Commonwealth Stadium|1540 University Drive|Lexington|Kentucky|Kentucky Wildcats
Tiger Stadium|3601 S Broad St|Philadelphia|Pennsylvania|LSU Tigers
Vaught Hemingway Stadium|Stadium Dr at All-American Dr, University|Oxford |Mississippi|Mississippi Rebels
Scott Field (Davis Wade Stadium)|Lee Blvd Mississippi State|Starkville|Mississippi|Mississippi State Bulldogs
Williams-Brice Stadium|George Rogers Blvd|Columbia|South Carolina|South Carolina Gamecocks
Neyland Stadium|1600 Stadium Drive, Suite 202|Knoxville|Tennessee|Tennessee Volunteers
Vanderbilt Stadium|Natchez Trace & Jess Neely Dr|Nashville|Tennessee|Vanderbilt Commodores
Indian Stadium|2 U Street|Bath|Arkansas|Arkansas State Redwolves
Lockhart Stadium|1350 NW 55th Street|Fort Lauderdale|Flordia|Florida Atlantic Owls
FIU Stadium||Miami|Florida|FIU Golden Panthers
Cajun Stadium||Lafayette|Louisiana|Louisiana-Lafayette Ragin' Cajuns
Malone Stadium||Monroe|Louisiana|Louisiana-Monroe Warhawks
Johnny "Red" Floyd Stadium||Murfreesboro|Tennessee|Middle Tennessee Blue Raiders
Fouts Field||Denton|Texas|North Texas Mean Green
Movie Gallery Stadium||Troy|Alabama|Troy Trojans
Houchens Industries L.T. Smith Stadium||||Western Kentucky Hilltoppers
Bronco Stadium|1910 University Drive|Boise|Idaho|Boise State Broncos
Bulldog Stadium||Fresno|California|Fresno State Bulldogs
Aloha Stadium||Honolulu|Hawaii|Hawaii Warriors
Kibbie Dome||Moscow|Idaho|Idaho Vandals
Joe Aillet Stadium||Ruston|Louisiana|Louisiana Tech Bulldogs
Mackay Stadium||Reno|Nevada|Nevada Wolf Pack
Aggie Memorial Stadium|Stewart Street|Las Cruces|New Mexico|New Mexico State Aggies
Spartan Stadium||San Jose|California|San Jose State Spartans
Romney Stadium|9 E 10 North|Logan|Utah|Utah State Aggies
